{"type": "FeatureCollection", "features": [ {"type": "Feature", "properties": {"norad_id": 40664, "name": "SKY MEXICO-1", "group": "intelsat", "lat": -0.03660319710146449, "lon": -114.72078769333025, "alt_km": 35778.183164481794, "timestamp": "2025-12-17T15:50:09.444894+00:00", "meta": {"OBJECT_NAME": "SKY MEXICO-1", "OBJECT_ID": "2015-026B", "EPOCH": "2025-12-17T04:23:28.927680", "MEAN_MOTION": 1.00271308, "ECCENTRICITY": 0.00023906, "INCLINATION": 0.0176, "RA_OF_ASC_NODE": 305.8331, "ARG_OF_PERICENTER": 336.6323, "MEAN_ANOMALY": 150.7045, "EPHEMERIS_TYPE": 0, "CLASSIFICATION_TYPE": "U", "NORAD_CAT_ID": 40664, "ELEMENT_SET_NO": 999, "REV_AT_EPOCH": 3862, "BSTAR": 0, "MEAN_MOTION_DOT": -2.1e-06, "MEAN_MOTION_DDOT": 0}, "tle": {"line1": "1 40664U 15026B   25351.18297370 -.00000210  00000+0  00000+0 0  9999", "line2": "2 40664   0.0176 305.8331 0002390 336.6323 150.7045  1.00271308 38622"}}, "geometry": {"type": "Point", "coordinates": [-114.72078769333025, -0.03660319710146449]}}, {"type": "Feature", "properties": {"norad_id": 40874, "name": "INTELSAT 34 (IS-34)", "group": "intelsat", "lat": -0.029785716109470492, "lon": -91.43545078931676, "alt_km": 35788.049734798566, "timestamp": "2025-12-17T15:50:09.444905+00:00", "meta": {"OBJECT_NAME": "INTELSAT 34 (IS-34)", "OBJECT_ID": "2015-039A", "EPOCH": "2025-12-17T04:30:05.793984", "MEAN_MOTION": 1.0027044, "ECCENTRICITY": 6.647e-05, "INCLINATION": 0.0121, "RA_OF_ASC_NODE": 315.8651, "ARG_OF_PERICENTER": 189.6166, "MEAN_ANOMALY": 312.6103, "EPHEMERIS_TYPE": 0, "CLASSIFICATION_TYPE": "U", "NORAD_CAT_ID": 40874, "ELEMENT_SET_NO": 999, "REV_AT_EPOCH": 3780, "BSTAR": 0, "MEAN_MOTION_DOT": -2.61e-06, "MEAN_MOTION_DDOT": 0}, "tle": {"line1": "1 40874U 15039A   25351.18756706 -.00000261  00000+0  00000+0 0  9995", "line2": "2 40874   0.0121 315.8651 0000664 189.6166 312.6103  1.00270440 37803"}}, "geometry": {"type": "Point", "coordinates": [-91.43545078931676, -0.029785716109470492]}}, {"type": "Feature", "properties": {"norad_id": 41581, "name": "INTELSAT 31 (IS-31)", "group": "intelsat", "lat": -0.0249490978384108, "lon": -130.97554454713992, "alt_km": 35777.76090407306, "timestamp": "2025-12-17T15:50:09.444917+00:00", "meta": {"OBJECT_NAME": "INTELSAT 31 (IS-31)", "OBJECT_ID": "2016-035A", "EPOCH": "2025-12-16T09:29:38.777280", "MEAN_MOTION": 1.00273672, "ECCENTRICITY": 0.00019671, "INCLINATION": 0.0195, "RA_OF_ASC_NODE": 272.5093, "ARG_OF_PERICENTER": 297.3574, "MEAN_ANOMALY": 282.7801, "EPHEMERIS_TYPE": 0, "CLASSIFICATION_TYPE": "U", "NORAD_CAT_ID": 41581, "ELEMENT_SET_NO": 999, "REV_AT_EPOCH": 3485, "BSTAR": 0, "MEAN_MOTION_DOT": -1.28e-06, "MEAN_MOTION_DDOT": 0}, "tle": {"line1": "1 41581U 16035A   25350.39558770 -.00000128  00000+0  00000+0 0  9993", "line2": "2 41581   0.0195 272.5093 0001967 297.3574 282.7801  1.00273672 34850"}}, "geometry": {"type": "Point", "coordinates": [-130.97554454713992, -0.0249490978384108]}}, {"type": "Feature", "properties": {"norad_id": 41747, "name": "INTELSAT 36 (IS-36)", "group": "intelsat", "lat": 0.022270256324929596, "lon": 32.555562483434535, "alt_km": 35783.94209620569, "timestamp": "2025-12-17T15:50:09.444929+00:00", "meta": {"OBJECT_NAME": "INTELSAT 36 (IS-36)", "OBJECT_ID": "2016-053A", "EPOCH": "2025-12-17T05:05:24.912960", "MEAN_MOTION": 1.00271156, "ECCENTRICITY": 0.00011816, "INCLINATION": 0.012, "RA_OF_ASC_NODE": 4.1631, "ARG_OF_PERICENTER": 326.1928, "MEAN_ANOMALY": 260.5738, "EPHEMERIS_TYPE": 0, "CLASSIFICATION_TYPE": "U", "NORAD_CAT_ID": 41747, "ELEMENT_SET_NO": 999, "REV_AT_EPOCH": 3412, "BSTAR": 0, "MEAN_MOTION_DOT": 0, "MEAN_MOTION_DDOT": 0}, "tle": {"line1": "1 41747U 16053A   25351.21209390  .00000000  00000+0  00000+0 0  9998", "line2": "2 41747   0.0120   4.1631 0001181 326.1928 260.5738  1.00271156 34129"}}, "geometry": {"type": "Point", "coordinates": [32.555562483434535, 0.022270256324929596]}}, {"type": "Feature", "properties": {"norad_id": 41945, "name": "INTELSAT 32E (IS-32E)", "group": "intelsat", "lat": -0.029747302287561495, "lon": -79.12118792875164, "alt_km": 35787.05759910107, "timestamp": "2025-12-17T15:50:09.444941+00:00", "meta": {"OBJECT_NAME": "INTELSAT 32E (IS-32E)", "OBJECT_ID": "2017-007B", "EPOCH": "2025-12-16T04:35:28.228416", "MEAN_MOTION": 1.00271613, "ECCENTRICITY": 5.242e-05, "INCLINATION": 0.0304, "RA_OF_ASC_NODE": 75.3547, "ARG_OF_PERICENTER": 315.6867, "MEAN_ANOMALY": 79.7377, "EPHEMERIS_TYPE": 0, "CLASSIFICATION_TYPE": "U", "NORAD_CAT_ID": 41945, "ELEMENT_SET_NO": 999, "REV_AT_EPOCH": 3239, "BSTAR": 0, "MEAN_MOTION_DOT": -2.46e-06, "MEAN_MOTION_DDOT": 0}, "tle": {"line1": "1 41945U 17007B   25350.19129894 -.00000246  00000+0  00000+0 0  9997", "line2": "2 41945   0.0304  75.3547 0000524 315.6867  79.7377  1.00271613 32398"}}, "geometry": {"type": "Point", "coordinates": [-79.12118792875164, -0.029747302287561495]}}, {"type": "Feature", "properties": {"norad_id": 42818, "name": "INTELSAT 35E (IS-35E)", "group": "intelsat", "lat": -0.04602437694940563, "lon": -70.4319968168302, "alt_km": 35779.25733536403, "timestamp": "2025-12-17T15:50:09.444953+00:00", "meta": {"OBJECT_NAME": "INTELSAT 35E (IS-35E)", "OBJECT_ID": "2017-041A", "EPOCH": "2025-12-17T04:36:05.220576", "MEAN_MOTION": 1.00270164, "ECCENTRICITY": 0.00018455, "INCLINATION": 0.0255, "RA_OF_ASC_NODE": 3.0137, "ARG_OF_PERICENTER": 266.2143, "MEAN_ANOMALY": 211.3684, "EPHEMERIS_TYPE": 0, "CLASSIFICATION_TYPE": "U", "NORAD_CAT_ID": 42818, "ELEMENT_SET_NO": 999, "REV_AT_EPOCH": 3099, "BSTAR": 0, "MEAN_MOTION_DOT": 0, "MEAN_MOTION_DDOT": 0}, "tle": {"line1": "1 42818U 17041A   25351.19172709  .00000000  00000+0  00000+0 0  9996", "line2": "2 42818   0.0255   3.0137 0001845 266.2143 211.3684  1.00270164 30990"}}, "geometry": {"type": "Point", "coordinates": [-70.4319968168302, -0.04602437694940563]}}, {"type": "Feature", "properties": {"norad_id": 42950, "name": "INTELSAT 37E (IS-37E)", "group": "intelsat", "lat": -0.017468692301194175, "lon": -53.91420934764915, "alt_km": 35777.91776295572, "timestamp": "2025-12-17T15:50:09.444964+00:00", "meta": {"OBJECT_NAME": "INTELSAT 37E (IS-37E)", "OBJECT_ID": "2017-059A", "EPOCH": "2025-12-17T04:40:49.766880", "MEAN_MOTION": 1.0027127, "ECCENTRICITY": 0.00029492, "INCLINATION": 0.0152, "RA_OF_ASC_NODE": 325.4284, "ARG_OF_PERICENTER": 292.3787, "MEAN_ANOMALY": 240.4762, "EPHEMERIS_TYPE": 0, "CLASSIFICATION_TYPE": "U", "NORAD_CAT_ID": 42950, "ELEMENT_SET_NO": 999, "REV_AT_EPOCH": 3024, "BSTAR": 0, "MEAN_MOTION_DOT": -1.16e-06, "MEAN_MOTION_DDOT": 0}, "tle": {"line1": "1 42950U 17059A   25351.19502045 -.00000116  00000+0  00000+0 0  9991", "line2": "2 42950   0.0152 325.4284 0002949 292.3787 240.4762  1.00271270 30244"}}, "geometry": {"type": "Point", "coordinates": [-53.91420934764915, -0.017468692301194175]}}, {"type": "Feature", "properties": {"norad_id": 43632, "name": "AZERSPACE 2 (IS-38)", "group": "intelsat", "lat": 0.018315137834832393, "lon": 9.187734027885245, "alt_km": 35786.563620930356, "timestamp": "2025-12-17T15:50:09.444976+00:00", "meta": {"OBJECT_NAME": "AZERSPACE 2 (IS-38)", "OBJECT_ID": "2018-074A", "EPOCH": "2025-12-17T04:58:48.045792", "MEAN_MOTION": 1.00272024, "ECCENTRICITY": 0.00011885, "INCLINATION": 0.0178, "RA_OF_ASC_NODE": 345.7999, "ARG_OF_PERICENTER": 286.5784, "MEAN_ANOMALY": 293.5224, "EPHEMERIS_TYPE": 0, "CLASSIFICATION_TYPE": "U", "NORAD_CAT_ID": 43632, "ELEMENT_SET_NO": 999, "REV_AT_EPOCH": 2662, "BSTAR": 0, "MEAN_MOTION_DOT": 1.61e-06, "MEAN_MOTION_DDOT": 0}, "tle": {"line1": "1 43632U 18074A   25351.20750053  .00000161  00000+0  00000+0 0  9992", "line2": "2 43632   0.0178 345.7999 0001188 286.5784 293.5224  1.00272024 26621"}}, "geometry": {"type": "Point", "coordinates": [9.187734027885245, 0.018315137834832393]}}, {"type": "Feature", "properties": {"norad_id": 43633, "name": "HORIZONS-3E", "group": "intelsat", "lat": -0.01632091440674815, "lon": 133.0339773118708, "alt_km": 35790.033760783284, "timestamp": "2025-12-17T15:50:09.444988+00:00", "meta": {"OBJECT_NAME": "HORIZONS-3E", "OBJECT_ID": "2018-074B", "EPOCH": "2025-12-16T14:09:40.218048", "MEAN_MOTION": 1.00269891, "ECCENTRICITY": 8.37e-05, "INCLINATION": 0.0492, "RA_OF_ASC_NODE": 188.1186, "ARG_OF_PERICENTER": 112.8726, "MEAN_ANOMALY": 165.8874, "EPHEMERIS_TYPE": 0, "CLASSIFICATION_TYPE": "U", "NORAD_CAT_ID": 43633, "ELEMENT_SET_NO": 999, "REV_AT_EPOCH": 2651, "BSTAR": 0, "MEAN_MOTION_DOT": -7e-08, "MEAN_MOTION_DDOT": 0}, "tle": {"line1": "1 43633U 18074B   25350.59004882 -.00000007  00000+0  00000+0 0  9996", "line2": "2 43633   0.0492 188.1186 0000837 112.8726 165.8874  1.00269891 26513"}}, "geometry": {"type": "Point", "coordinates": [133.0339773118708, -0.01632091440674815]}}, {"type": "Feature", "properties": {"norad_id": 44333, "name": "AT&T T-16", "group": "intelsat", "lat": -0.008718425877111174, "lon": -136.7960562230143, "alt_km": 35786.75195096352, "timestamp": "2025-12-17T15:50:09.445000+00:00", "meta": {"OBJECT_NAME": "AT&T T-16", "OBJECT_ID": "2019-034A", "EPOCH": "2025-12-17T06:51:09.054144", "MEAN_MOTION": 1.00269574, "ECCENTRICITY": 7.795e-05, "INCLINATION": 0.0243, "RA_OF_ASC_NODE": 64.3003, "ARG_OF_PERICENTER": 68.469, "MEAN_ANOMALY": 315.3201, "EPHEMERIS_TYPE": 0, "CLASSIFICATION_TYPE": "U", "NORAD_CAT_ID": 44333, "ELEMENT_SET_NO": 999, "REV_AT_EPOCH": 2381, "BSTAR": 0, "MEAN_MOTION_DOT": -9e-07, "MEAN_MOTION_DDOT": 0}, "tle": {"line1": "1 44333U 19034A   25351.28552146 -.00000090  00000+0  00000+0 0  9991", "line2": "2 44333   0.0243  64.3003 0000779  68.4690 315.3201  1.00269574 23813"}}, "geometry": {"type": "Point", "coordinates": [-136.7960562230143, -0.008718425877111174]}}]}